start=new Date('2023-05-06T00:00:00.000Z').valueOf();
sats=[{"OBJECT_NAME":"STARLINK-1462","COUNTRY_CODE":"US","LAUNCH_DATE":"2020-06-13","REF_FRAME":"TEME","DECAY_DATE":null,"PERIAPSIS":"546.190","CENTER_NAME":"EARTH","EPHEMERIS_TYPE":"0","OBJECT_ID":"2020-038AS","NORAD_CAT_ID":"45770","MEAN_ANOMALY":"259.3864","CLASSIFICATION_TYPE":"U","APOAPSIS":"548.156","ELEMENT_SET_NO":"999","RA_OF_ASC_NODE":"181.4880","MEAN_ELEMENT_THEORY":"SGP4","REV_AT_EPOCH":"16124","INCLINATION":"53.0532","OBJECT_TYPE":"PAYLOAD","TIME_SYSTEM":"UTC","ARG_OF_PERICENTER":"100.7285","PERIOD":"95.591","GP_ID":"231285236","MEAN_MOTION_DOT":"0.00004486","SITE":"AFETR","BSTAR":"0.00031973000000","EPOCH":"2023-05-05T13:14:54.352608","MEAN_MOTION_DDOT":"0.0000000000000","FILE":"3901567","SEMIMAJOR_AXIS":"6925.308","RCS_SIZE":"LARGE","TLE_LINE1":"1 45770U 20038AS  23125.55201797  .00004486  00000-0  31973-3 0  9993","TLE_LINE2":"2 45770  53.0532 181.4880 0001420 100.7285 259.3864 15.06413211161248","MEAN_MOTION":"15.06413211","ECCENTRICITY":"0.00014200"},{"OBJECT_ID":"2020-038AT","NORAD_CAT_ID":"45771","MEAN_ANOMALY":"292.5747","CLASSIFICATION_TYPE":"U","APOAPSIS":"547.835","CENTER_NAME":"EARTH","EPHEMERIS_TYPE":"0","ELEMENT_SET_NO":"999","RA_OF_ASC_NODE":"181.5148","LAUNCH_DATE":"2020-06-13","REF_FRAME":"TEME","DECAY_DATE":null,"OBJECT_NAME":"STARLINK-1463","COUNTRY_CODE":"US","PERIAPSIS":"546.546","PERIOD":"95.592","GP_ID":"231291180","MEAN_MOTION":"15.06407496","TLE_LINE2":"2 45771  53.0518 181.5148 0000931  67.5340 292.5747 15.06407496161246","TLE_LINE1":"1 45771U 20038AT  23125.54559195  .00007690  00000-0  53447-3 0  9991","ECCENTRICITY":"0.00009310","SITE":"AFETR","BSTAR":"0.00053447000000","MEAN_MOTION_DOT":"0.00007690","MEAN_MOTION_DDOT":"0.0000000000000","EPOCH":"2023-05-05T13:05:39.144480","RCS_SIZE":"LARGE","FILE":"3901813","SEMIMAJOR_AXIS":"6925.326","INCLINATION":"53.0518","OBJECT_TYPE":"PAYLOAD","MEAN_ELEMENT_THEORY":"SGP4","REV_AT_EPOCH":"16124","TIME_SYSTEM":"UTC","ARG_OF_PERICENTER":"67.5340"},{"REV_AT_EPOCH":"16124","MEAN_ELEMENT_THEORY":"SGP4","INCLINATION":"53.0522","OBJECT_TYPE":"PAYLOAD","ARG_OF_PERICENTER":"95.0711","TIME_SYSTEM":"UTC","PERIOD":"95.591","GP_ID":"231291191","EPOCH":"2023-05-05T12:49:43.478400","MEAN_MOTION_DDOT":"0.0000000000000","BSTAR":"0.00086789000000","SITE":"AFETR","MEAN_MOTION_DOT":"0.00012675","SEMIMAJOR_AXIS":"6925.299","FILE":"3901814","RCS_SIZE":"LARGE","TLE_LINE2":"2 45772  53.0522 181.5621 0001209  95.0711 265.0416 15.06416199161243","TLE_LINE1":"1 45772U 20038AU  23125.53453100  .00012675  00000-0  86789-3 0  9994","MEAN_MOTION":"15.06416199","ECCENTRICITY":"0.00012090","OBJECT_NAME":"STARLINK-1470","COUNTRY_CODE":"US","REF_FRAME":"TEME","LAUNCH_DATE":"2020-06-13","DECAY_DATE":null,"PERIAPSIS":"546.327","CENTER_NAME":"EARTH","EPHEMERIS_TYPE":"0","CLASSIFICATION_TYPE":"U","MEAN_ANOMALY":"265.0416","OBJECT_ID":"2020-038AU","NORAD_CAT_ID":"45772","APOAPSIS":"548.001","RA_OF_ASC_NODE":"181.5621","ELEMENT_SET_NO":"999"},{"DECAY_DATE":null,"LAUNCH_DATE":"2020-06-13","REF_FRAME":"TEME","COUNTRY_CODE":"US","OBJECT_NAME":"STARLINK-1482","PERIAPSIS":"546.331","APOAPSIS":"548.082","NORAD_CAT_ID":"45773","OBJECT_ID":"2020-038AV","CLASSIFICATION_TYPE":"U","MEAN_ANOMALY":"269.5279","EPHEMERIS_TYPE":"0","CENTER_NAME":"EARTH","ELEMENT_SET_NO":"999","RA_OF_ASC_NODE":"184.5790","OBJECT_TYPE":"PAYLOAD","INCLINATION":"53.0537","REV_AT_EPOCH":"16003","MEAN_ELEMENT_THEORY":"SGP4","TIME_SYSTEM":"UTC","ARG_OF_PERICENTER":"90.5854","GP_ID":"231269737","PERIOD":"95.592","ECCENTRICITY":"0.00012640","MEAN_MOTION":"15.06402216","TLE_LINE2":"2 45773  53.0537 184.5790 0001264  90.5854 269.5279 15.06402216160036","TLE_LINE1":"1 45773U 20038AV  23124.86369161  .00009734  00000-0  67142-3 0  9997","SEMIMAJOR_AXIS":"6925.342","FILE":"3901186","RCS_SIZE":"LARGE","BSTAR":"0.00067142000000","SITE":"AFETR","MEAN_MOTION_DOT":"0.00009734","MEAN_MOTION_DDOT":"0.0000000000000","EPOCH":"2023-05-04T20:43:42.955104"},{"GP_ID":"231285598","PERIOD":"95.592","ECCENTRICITY":"0.00012790","MEAN_MOTION":"15.06404457","TLE_LINE2":"2 45774  53.0524 181.7282 0001279 106.4294 253.6836 15.06404457161245","TLE_LINE1":"1 45774U 20038AW  23125.49768524  .00016727  00000-0  11390-2 0  9997","SEMIMAJOR_AXIS":"6925.335","FILE":"3901583","RCS_SIZE":"LARGE","EPOCH":"2023-05-05T11:56:40.004736","MEAN_MOTION_DDOT":"0.0000000000000","MEAN_MOTION_DOT":"0.00016727","SITE":"AFETR","BSTAR":"0.00113900000000","OBJECT_TYPE":"PAYLOAD","INCLINATION":"53.0524","MEAN_ELEMENT_THEORY":"SGP4","REV_AT_EPOCH":"16124","ARG_OF_PERICENTER":"106.4294","TIME_SYSTEM":"UTC","APOAPSIS":"548.086","MEAN_ANOMALY":"253.6836","CLASSIFICATION_TYPE":"U","OBJECT_ID":"2020-038AW","NORAD_CAT_ID":"45774","EPHEMERIS_TYPE":"0","CENTER_NAME":"EARTH","ELEMENT_SET_NO":"999","RA_OF_ASC_NODE":"181.7282","DECAY_DATE":null,"REF_FRAME":"TEME","LAUNCH_DATE":"2020-06-13","COUNTRY_CODE":"US","OBJECT_NAME":"STARLINK-1485","PERIAPSIS":"546.314"},{"REV_AT_EPOCH":"16119","MEAN_ELEMENT_THEORY":"SGP4","OBJECT_TYPE":"PAYLOAD","INCLINATION":"53.0504","TIME_SYSTEM":"UTC","ARG_OF_PERICENTER":"351.1222","GP_ID":"231283537","PERIOD":"94.837","SEMIMAJOR_AXIS":"6888.811","FILE":"3901485","RCS_SIZE":"LARGE","SITE":"AFETR","BSTAR":"0.00063748000000","MEAN_MOTION_DOT":"0.00012982","EPOCH":"2023-05-05T12:38:36.450528","MEAN_MOTION_DDOT":"0.0000000000000","ECCENTRICITY":"0.00047140","TLE_LINE2":"2 45775  53.0504 174.9110 0004714 351.1222   8.9688 15.18400439161194","MEAN_MOTION":"15.18400439","TLE_LINE1":"1 45775U 20038AX  23125.52681077  .00012982  00000-0  63748-3 0  9993","COUNTRY_CODE":"US","OBJECT_NAME":"STARLINK-1488","DECAY_DATE":null,"LAUNCH_DATE":"2020-06-13","REF_FRAME":"TEME","PERIAPSIS":"507.429","EPHEMERIS_TYPE":"0","CENTER_NAME":"EARTH","APOAPSIS":"513.924","NORAD_CAT_ID":"45775","OBJECT_ID":"2020-038AX","MEAN_ANOMALY":"8.9688","CLASSIFICATION_TYPE":"U","ELEMENT_SET_NO":"999","RA_OF_ASC_NODE":"174.9110"},{"CENTER_NAME":"EARTH","EPHEMERIS_TYPE":"0","CLASSIFICATION_TYPE":"U","MEAN_ANOMALY":"261.6146","NORAD_CAT_ID":"45776","OBJECT_ID":"2020-038AY","APOAPSIS":"548.003","ELEMENT_SET_NO":"999","RA_OF_ASC_NODE":"182.2726","OBJECT_NAME":"STARLINK-1489","COUNTRY_CODE":"US","REF_FRAME":"TEME","LAUNCH_DATE":"2020-06-13","DECAY_DATE":null,"PERIAPSIS":"546.372","PERIOD":"95.592","GP_ID":"231291232","EPOCH":"2023-05-05T09:01:29.637408","MEAN_MOTION_DDOT":"0.0000000000000","BSTAR":"0.00064434000000","SITE":"AFETR","MEAN_MOTION_DOT":"0.00009331","SEMIMAJOR_AXIS":"6925.323","FILE":"3901816","RCS_SIZE":"LARGE","TLE_LINE2":"2 45776  53.0526 182.2726 0001178  98.4976 261.6146 15.06408491161226","TLE_LINE1":"1 45776U 20038AY  23125.37603747  .00009331  00000-0  64434-3 0  9992","MEAN_MOTION":"15.06408491","ECCENTRICITY":"0.00011780","MEAN_ELEMENT_THEORY":"SGP4","REV_AT_EPOCH":"16122","INCLINATION":"53.0526","OBJECT_TYPE":"PAYLOAD","ARG_OF_PERICENTER":"98.4976","TIME_SYSTEM":"UTC"},{"PERIAPSIS":"530.048","COUNTRY_CODE":"US","OBJECT_NAME":"STARLINK-1490","DECAY_DATE":null,"LAUNCH_DATE":"2020-06-13","REF_FRAME":"TEME","RA_OF_ASC_NODE":"182.6618","ELEMENT_SET_NO":"999","EPHEMERIS_TYPE":"0","CENTER_NAME":"EARTH","APOAPSIS":"535.413","NORAD_CAT_ID":"45777","OBJECT_ID":"2020-038AZ","CLASSIFICATION_TYPE":"U","MEAN_ANOMALY":"311.8140","TIME_SYSTEM":"UTC","ARG_OF_PERICENTER":"48.3183","MEAN_ELEMENT_THEORY":"SGP4","REV_AT_EPOCH":"16006","OBJECT_TYPE":"PAYLOAD","INCLINATION":"53.0521","SEMIMAJOR_AXIS":"6910.865","FILE":"3901186","RCS_SIZE":"LARGE","BSTAR":"0.00115350000000","SITE":"AFETR","MEAN_MOTION_DOT":"0.00019320","EPOCH":"2023-05-04T20:30:34.877376","MEAN_MOTION_DDOT":"0.0000000000000","ECCENTRICITY":"0.00038820","MEAN_MOTION":"15.11137917","TLE_LINE2":"2 45777  53.0521 182.6618 0003882  48.3183 311.8140 15.11137917160065","TLE_LINE1":"1 45777U 20038AZ  23124.85457034  .00019320  00000-0  11535-2 0  9993","GP_ID":"231269238","PERIOD":"95.292"},{"OBJECT_TYPE":"PAYLOAD","INCLINATION":"53.0529","MEAN_ELEMENT_THEORY":"SGP4","REV_AT_EPOCH":"16124","ARG_OF_PERICENTER":"70.5726","TIME_SYSTEM":"UTC","GP_ID":"231285441","PERIOD":"95.591","ECCENTRICITY":"0.00013020","MEAN_MOTION":"15.06413125","TLE_LINE2":"2 45778  53.0529 181.4863 0001302  70.5726 289.5403 15.06413125161244","TLE_LINE1":"1 45778U 20038BA  23125.55296238  .00014984  00000-0  10223-2 0  9993","RCS_SIZE":"LARGE","FILE":"3901583","SEMIMAJOR_AXIS":"6925.308","MEAN_MOTION_DDOT":"0.0000000000000","EPOCH":"2023-05-05T13:16:15.949632","SITE":"AFETR","BSTAR":"0.00102230000000","MEAN_MOTION_DOT":"0.00014984","DECAY_DATE":null,"REF_FRAME":"TEME","LAUNCH_DATE":"2020-06-13","COUNTRY_CODE":"US","OBJECT_NAME":"STARLINK-1491","PERIAPSIS":"546.272","APOAPSIS":"548.075","MEAN_ANOMALY":"289.5403","CLASSIFICATION_TYPE":"U","OBJECT_ID":"2020-038BA","NORAD_CAT_ID":"45778","EPHEMERIS_TYPE":"0","CENTER_NAME":"EARTH","ELEMENT_SET_NO":"999","RA_OF_ASC_NODE":"181.4863"},{"PERIAPSIS":"503.260","DECAY_DATE":null,"REF_FRAME":"TEME","LAUNCH_DATE":"2020-06-13","COUNTRY_CODE":"US","OBJECT_NAME":"STARLINK-1492","RA_OF_ASC_NODE":"172.0051","ELEMENT_SET_NO":"999","APOAPSIS":"505.203","CLASSIFICATION_TYPE":"U","MEAN_ANOMALY":"80.1791","NORAD_CAT_ID":"45779","OBJECT_ID":"2020-038BB","EPHEMERIS_TYPE":"0","CENTER_NAME":"EARTH","ARG_OF_PERICENTER":"279.9044","TIME_SYSTEM":"UTC","OBJECT_TYPE":"PAYLOAD","INCLINATION":"53.0493","MEAN_ELEMENT_THEORY":"SGP4","REV_AT_EPOCH":"16134","ECCENTRICITY":"0.00014120","TLE_LINE2":"2 45779  53.0493 172.0051 0001412 279.9044  80.1791 15.20533797161340","MEAN_MOTION":"15.20533797","TLE_LINE1":"1 45779U 20038BB  23125.12413381  .00023218  00000-0  10594-2 0  9998","FILE":"3901290","SEMIMAJOR_AXIS":"6882.366","RCS_SIZE":"LARGE","EPOCH":"2023-05-05T02:58:45.161184","MEAN_MOTION_DDOT":"0.0000000000000","BSTAR":"0.00105940000000","SITE":"AFETR","MEAN_MOTION_DOT":"0.00023218","GP_ID":"231278894","PERIOD":"94.704"}];
